[{"OBJECT_NAME":"ICEYE-X7","OBJECT_ID":"2020-068L","EPOCH":"2026-03-09T22:52:28.702272","MEAN_MOTION":15.29152508,"ECCENTRICITY":0.00068409,"INCLINATION":97.7412,"RA_OF_ASC_NODE":31.2076,"ARG_OF_PERICENTER":332.3045,"MEAN_ANOMALY":27.7829,"EPHEMERIS_TYPE":0,"CLASSIFICATION_TYPE":"U","NORAD_CAT_ID":46496,"ELEMENT_SET_NO":999,"REV_AT_EPOCH":29961,"BSTAR":0.0005654802,"MEAN_MOTION_DOT":0.00015947,"MEAN_MOTION_DDOT":0},{"OBJECT_NAME":"STARLINK-30403","OBJECT_ID":"2023-138F","EPOCH":"2026-03-09T12:43:46.572960","MEAN_MOTION":15.26746502,"ECCENTRICITY":0.00015402,"INCLINATION":43.0012,"RA_OF_ASC_NODE":235.1058,"ARG_OF_PERICENTER":272.1014,"MEAN_ANOMALY":87.9661,"EPHEMERIS_TYPE":0,"CLASSIFICATION_TYPE":"U","NORAD_CAT_ID":57813,"ELEMENT_SET_NO":999,"REV_AT_EPOCH":13861,"BSTAR":-8.5999161e-5,"MEAN_MOTION_DOT":-2.566e-5,"MEAN_MOTION_DDOT":0}]
